0 FENGYUN 1C DEB
1 37404U 99025EFW 13280.56624694  .00000715  00000-0  34549-3 0  1903
2 37404 098.8416 305.7238 0051822 155.9437 358.1417 14.21017292193883
0 FENGYUN 1C DEB
1 37404U 99025EFW 13285.53542116  .00000710  00000-0  34354-3 0  1913
2 37404 098.8436 310.6921 0051109 140.6590 219.8382 14.21024614194597
0 FENGYUN 1C DEB
1 37404U 99025EFW 13285.56529475  .00000878  00000-0  41956-3 0  1921
2 37404 098.8407 310.7269 0051907 141.9197 011.3287 14.21028029194597
0 FENGYUN 1C DEB
1 37404U 99025EFW 13291.89616006  .00001087  00000-0  51440-3 0  1934
2 37404 098.8391 317.0610 0051943 124.1418 357.8748 14.21042530195491
